start=new Date('2021-11-07T00:00:00.000Z').valueOf();
sats=[{"OBJECT_ID":"2021-021AP","MEAN_MOTION_DDOT":"0.0000000000000","LAUNCH_DATE":"2021-03-14","DECAY_DATE":null,"REF_FRAME":"TEME","PERIOD":"95.594","MEAN_ANOMALY":"286.0428","ARG_OF_PERICENTER":"74.0752","CLASSIFICATION_TYPE":"U","EPOCH":"2021-11-06T08:16:41.348928","TIME_SYSTEM":"UTC","SITE":"AFETR","APOAPSIS":"548.483","ECCENTRICITY":"0.00017360","TLE_LINE1":"1 47897U 21021AP  21310.34492302 -.00002144  00000-0 -12512-3 0  9992","FILE":"3206165","REV_AT_EPOCH":"3740","COUNTRY_CODE":"US","MEAN_ELEMENT_THEORY":"SGP4","PERIAPSIS":"546.079","EPHEMERIS_TYPE":"0","RA_OF_ASC_NODE":"184.0410","TLE_LINE2":"2 47897  53.0545 184.0410 0001736  74.0752 286.0428 15.06378070 37400","MEAN_MOTION_DOT":"-0.00002144","CENTER_NAME":"EARTH","BSTAR":"-0.00012512000000","ELEMENT_SET_NO":"999","SEMIMAJOR_AXIS":"6925.416","OBJECT_NAME":"STARLINK-2357","NORAD_CAT_ID":"47897","RCS_SIZE":"MEDIUM","GP_ID":"189130172","INCLINATION":"53.0545","OBJECT_TYPE":"PAYLOAD","MEAN_MOTION":"15.06378070"},{"ARG_OF_PERICENTER":"76.9719","CLASSIFICATION_TYPE":"U","APOAPSIS":"548.356","TLE_LINE1":"1 47898U 21021AQ  21310.73657508 -.00013959  00000-0 -92096-3 0  9998","ECCENTRICITY":"0.00014870","TIME_SYSTEM":"UTC","EPOCH":"2021-11-06T17:40:40.086912","SITE":"AFETR","MEAN_MOTION_DDOT":"0.0000000000000","OBJECT_ID":"2021-021AQ","MEAN_ANOMALY":"283.1436","LAUNCH_DATE":"2021-03-14","DECAY_DATE":null,"PERIOD":"95.594","REF_FRAME":"TEME","NORAD_CAT_ID":"47898","RCS_SIZE":"LARGE","GP_ID":"189098800","MEAN_MOTION":"15.06363118","INCLINATION":"53.0549","OBJECT_TYPE":"PAYLOAD","RA_OF_ASC_NODE":"182.2615","EPHEMERIS_TYPE":"0","CENTER_NAME":"EARTH","TLE_LINE2":"2 47898  53.0549 182.2615 0001487  76.9719 283.1436 15.06363118 36974","MEAN_MOTION_DOT":"-0.00013959","REV_AT_EPOCH":"3697","COUNTRY_CODE":"US","FILE":"3205701","PERIAPSIS":"546.297","MEAN_ELEMENT_THEORY":"SGP4","OBJECT_NAME":"STARLINK-2358","SEMIMAJOR_AXIS":"6925.462","ELEMENT_SET_NO":"999","BSTAR":"-0.00092096000000"},{"FILE":"3205700","REV_AT_EPOCH":"3712","COUNTRY_CODE":"US","MEAN_ELEMENT_THEORY":"SGP4","PERIAPSIS":"546.237","RA_OF_ASC_NODE":"172.2704","EPHEMERIS_TYPE":"0","TLE_LINE2":"2 47899  53.0556 172.2704 0001557  77.3998 282.7165 15.06366726 37123","MEAN_MOTION_DOT":"-0.00002100","CENTER_NAME":"EARTH","BSTAR":"-0.00012222000000","SEMIMAJOR_AXIS":"6925.451","ELEMENT_SET_NO":"999","OBJECT_NAME":"STARLINK-2359","NORAD_CAT_ID":"47899","RCS_SIZE":"LARGE","GP_ID":"189099152","INCLINATION":"53.0556","OBJECT_TYPE":"PAYLOAD","MEAN_MOTION":"15.06366726","OBJECT_ID":"2021-021AR","MEAN_MOTION_DDOT":"0.0000000000000","PERIOD":"95.594","DECAY_DATE":null,"LAUNCH_DATE":"2021-03-14","REF_FRAME":"TEME","MEAN_ANOMALY":"282.7165","ARG_OF_PERICENTER":"77.3998","CLASSIFICATION_TYPE":"U","EPOCH":"2021-11-06T17:36:43.314624","TIME_SYSTEM":"UTC","SITE":"AFETR","APOAPSIS":"548.394","ECCENTRICITY":"0.00015570","TLE_LINE1":"1 47899U 21021AR  21310.73383466 -.00002100  00000-0 -12222-3 0  9997"},{"NORAD_CAT_ID":"47900","RCS_SIZE":"LARGE","GP_ID":"189104597","MEAN_MOTION":"15.06371099","INCLINATION":"53.0574","OBJECT_TYPE":"PAYLOAD","RA_OF_ASC_NODE":"182.4642","EPHEMERIS_TYPE":"0","TLE_LINE2":"2 47900  53.0574 182.4642 0001684  81.9106 278.2074 15.06371099 36962","MEAN_MOTION_DOT":"-0.00007171","CENTER_NAME":"EARTH","FILE":"3205950","REV_AT_EPOCH":"3696","COUNTRY_CODE":"US","MEAN_ELEMENT_THEORY":"SGP4","PERIAPSIS":"546.136","ELEMENT_SET_NO":"999","SEMIMAJOR_AXIS":"6925.437","OBJECT_NAME":"STARLINK-2360","BSTAR":"-0.00046338000000","CLASSIFICATION_TYPE":"U","ARG_OF_PERICENTER":"81.9106","APOAPSIS":"548.468","ECCENTRICITY":"0.00016840","TLE_LINE1":"1 47900U 21021AS  21310.69141243 -.00007171  00000-0 -46338-3 0  9998","EPOCH":"2021-11-06T16:35:38.033952","TIME_SYSTEM":"UTC","SITE":"AFETR","MEAN_MOTION_DDOT":"0.0000000000000","OBJECT_ID":"2021-021AS","DECAY_DATE":null,"REF_FRAME":"TEME","LAUNCH_DATE":"2021-03-14","PERIOD":"95.594","MEAN_ANOMALY":"278.2074"},{"NORAD_CAT_ID":"47901","RCS_SIZE":"LARGE","GP_ID":"189099185","MEAN_MOTION":"15.06361217","INCLINATION":"53.0505","OBJECT_TYPE":"PAYLOAD","RA_OF_ASC_NODE":"172.0553","EPHEMERIS_TYPE":"0","TLE_LINE2":"2 47901  53.0505 172.0553 0001421  59.7108 300.4021 15.06361217 37116","MEAN_MOTION_DOT":"-0.00014552","CENTER_NAME":"EARTH","FILE":"3205703","COUNTRY_CODE":"US","REV_AT_EPOCH":"3711","MEAN_ELEMENT_THEORY":"SGP4","PERIAPSIS":"546.348","ELEMENT_SET_NO":"999","SEMIMAJOR_AXIS":"6925.467","OBJECT_NAME":"STARLINK-2361","BSTAR":"-0.00096103000000","CLASSIFICATION_TYPE":"U","ARG_OF_PERICENTER":"59.7108","APOAPSIS":"548.317","ECCENTRICITY":"0.00014210","TLE_LINE1":"1 47901U 21021AT  21310.78078733 -.00014552  00000-0 -96103-3 0  9998","EPOCH":"2021-11-06T18:44:20.025312","TIME_SYSTEM":"UTC","SITE":"AFETR","MEAN_MOTION_DDOT":"0.0000000000000","OBJECT_ID":"2021-021AT","DECAY_DATE":null,"LAUNCH_DATE":"2021-03-14","REF_FRAME":"TEME","PERIOD":"95.595","MEAN_ANOMALY":"300.4021"},{"TIME_SYSTEM":"UTC","EPOCH":"2021-11-06T08:59:11.006016","SITE":"AFETR","APOAPSIS":"548.269","ECCENTRICITY":"0.00015220","TLE_LINE1":"1 47902U 21021AU  21310.37443294  .00001110  00000-0  93403-4 0  9997","ARG_OF_PERICENTER":"65.8905","CLASSIFICATION_TYPE":"U","DECAY_DATE":null,"PERIOD":"95.592","LAUNCH_DATE":"2021-03-14","REF_FRAME":"TEME","MEAN_ANOMALY":"294.2243","OBJECT_ID":"2021-021AU","MEAN_MOTION_DDOT":"0.0000000000000","INCLINATION":"53.0532","OBJECT_TYPE":"PAYLOAD","MEAN_MOTION":"15.06399693","NORAD_CAT_ID":"47902","RCS_SIZE":"LARGE","GP_ID":"189130924","BSTAR":"0.00009340300000","SEMIMAJOR_AXIS":"6925.349","ELEMENT_SET_NO":"999","OBJECT_NAME":"STARLINK-2362","FILE":"3206165","COUNTRY_CODE":"US","REV_AT_EPOCH":"3736","MEAN_ELEMENT_THEORY":"SGP4","PERIAPSIS":"546.160","EPHEMERIS_TYPE":"0","RA_OF_ASC_NODE":"193.8716","TLE_LINE2":"2 47902  53.0532 193.8716 0001522  65.8905 294.2243 15.06399693 37366","MEAN_MOTION_DOT":"0.00001110","CENTER_NAME":"EARTH"},{"GP_ID":"189105097","NORAD_CAT_ID":"47903","RCS_SIZE":"LARGE","MEAN_MOTION":"15.06395742","OBJECT_TYPE":"PAYLOAD","INCLINATION":"53.0537","CENTER_NAME":"EARTH","MEAN_MOTION_DOT":"0.00003639","TLE_LINE2":"2 47903  53.0537 172.5872 0001732  68.9703 291.1471 15.06395742 37115","EPHEMERIS_TYPE":"0","RA_OF_ASC_NODE":"172.5872","PERIAPSIS":"546.027","MEAN_ELEMENT_THEORY":"SGP4","COUNTRY_CODE":"US","REV_AT_EPOCH":"3711","FILE":"3205950","OBJECT_NAME":"STARLINK-2363","ELEMENT_SET_NO":"999","SEMIMAJOR_AXIS":"6925.362","BSTAR":"0.00026310000000","CLASSIFICATION_TYPE":"U","ARG_OF_PERICENTER":"68.9703","TLE_LINE1":"1 47903U 21021AV  21310.66378566  .00003639  00000-0  26310-3 0  9999","ECCENTRICITY":"0.00017320","APOAPSIS":"548.426","SITE":"AFETR","EPOCH":"2021-11-06T15:55:51.081024","TIME_SYSTEM":"UTC","MEAN_MOTION_DDOT":"0.0000000000000","OBJECT_ID":"2021-021AV","MEAN_ANOMALY":"291.1471","LAUNCH_DATE":"2021-03-14","DECAY_DATE":null,"REF_FRAME":"TEME","PERIOD":"95.592"},{"MEAN_MOTION_DOT":"-0.00006483","TLE_LINE2":"2 47904  53.0551 172.5946 0001263  74.5155 285.5974 15.06360646 37117","CENTER_NAME":"EARTH","RA_OF_ASC_NODE":"172.5946","EPHEMERIS_TYPE":"0","MEAN_ELEMENT_THEORY":"SGP4","PERIAPSIS":"546.459","FILE":"3205703","COUNTRY_CODE":"US","REV_AT_EPOCH":"3711","SEMIMAJOR_AXIS":"6925.469","ELEMENT_SET_NO":"999","OBJECT_NAME":"STARLINK-2364","BSTAR":"-0.00041718000000","GP_ID":"189099193","RCS_SIZE":"LARGE","NORAD_CAT_ID":"47904","MEAN_MOTION":"15.06360646","OBJECT_TYPE":"PAYLOAD","INCLINATION":"53.0551","MEAN_MOTION_DDOT":"0.0000000000000","OBJECT_ID":"2021-021AW","LAUNCH_DATE":"2021-03-14","DECAY_DATE":null,"PERIOD":"95.595","REF_FRAME":"TEME","MEAN_ANOMALY":"285.5974","CLASSIFICATION_TYPE":"U","ARG_OF_PERICENTER":"74.5155","ECCENTRICITY":"0.00012630","TLE_LINE1":"1 47904U 21021AW  21310.66011905 -.00006483  00000-0 -41718-3 0  9992","APOAPSIS":"548.209","SITE":"AFETR","TIME_SYSTEM":"UTC","EPOCH":"2021-11-06T15:50:34.285920"},{"PERIAPSIS":"546.168","MEAN_ELEMENT_THEORY":"SGP4","REV_AT_EPOCH":"3764","COUNTRY_CODE":"US","FILE":"3206165","CENTER_NAME":"EARTH","MEAN_MOTION_DOT":"0.00000114","TLE_LINE2":"2 47905  53.0553 174.1045 0001540  78.1017 282.0144 15.06393136 37642","RA_OF_ASC_NODE":"174.1045","EPHEMERIS_TYPE":"0","BSTAR":"0.00002658800000","OBJECT_NAME":"STARLINK-2365","ELEMENT_SET_NO":"999","SEMIMAJOR_AXIS":"6925.370","GP_ID":"189130173","NORAD_CAT_ID":"47905","RCS_SIZE":"LARGE","OBJECT_TYPE":"PAYLOAD","INCLINATION":"53.0553","MEAN_MOTION":"15.06393136","OBJECT_ID":"2021-021AX","MEAN_MOTION_DDOT":"0.0000000000000","MEAN_ANOMALY":"282.0144","DECAY_DATE":null,"REF_FRAME":"TEME","LAUNCH_DATE":"2021-03-14","PERIOD":"95.593","ARG_OF_PERICENTER":"78.1017","CLASSIFICATION_TYPE":"U","SITE":"AFETR","TIME_SYSTEM":"UTC","EPOCH":"2021-11-06T07:47:31.939008","TLE_LINE1":"1 47905U 21021AX  21310.32467522  .00000114  00000-0  26588-4 0  9998","ECCENTRICITY":"0.00015400","APOAPSIS":"548.301"},{"TLE_LINE1":"1 47906U 21021AY  21310.79060734  .00052632  00000-0  40611-3 0  9998","ECCENTRICITY":"0.00088550","APOAPSIS":"360.873","SITE":"AFETR","EPOCH":"2021-11-06T18:58:28.474176","TIME_SYSTEM":"UTC","ARG_OF_PERICENTER":"285.9640","CLASSIFICATION_TYPE":"U","MEAN_ANOMALY":"74.0401","LAUNCH_DATE":"2021-03-14","DECAY_DATE":null,"REF_FRAME":"TEME","PERIOD":"91.638","MEAN_MOTION_DDOT":"0.0000000000000","OBJECT_ID":"2021-021AY","MEAN_MOTION":"15.71395293","OBJECT_TYPE":"PAYLOAD","INCLINATION":"53.0506","GP_ID":"189101364","NORAD_CAT_ID":"47906","RCS_SIZE":"LARGE","OBJECT_NAME":"STARLINK-2366","SEMIMAJOR_AXIS":"6733.045","ELEMENT_SET_NO":"999","BSTAR":"0.00040611000000","CENTER_NAME":"EARTH","TLE_LINE2":"2 47906  53.0506 124.5929 0008855 285.9640  74.0401 15.71395293 37785","MEAN_MOTION_DOT":"0.00052632","RA_OF_ASC_NODE":"124.5929","EPHEMERIS_TYPE":"0","PERIAPSIS":"348.948","MEAN_ELEMENT_THEORY":"SGP4","COUNTRY_CODE":"US","REV_AT_EPOCH":"3778","FILE":"3205792"}];
